start=new Date('2022-09-11T00:00:00.000Z').valueOf();
sats=[{"NORAD_CAT_ID":"47799","PERIOD":"95.593","BSTAR":"-0.00016601000000","TLE_LINE1":"1 47799U 21018N   22253.88110382 -.00002753  00000-0 -16601-3 0  9999","REV_AT_EPOCH":"8457","CENTER_NAME":"EARTH","COUNTRY_CODE":"US","MEAN_ANOMALY":"274.9768","RA_OF_ASC_NODE":"198.9391","OBJECT_NAME":"STARLINK-2380","MEAN_MOTION":"15.06390465","EPOCH":"2022-09-10T21:08:47.370048","SEMIMAJOR_AXIS":"6925.378","PERIAPSIS":"546.169","FILE":"3567798","EPHEMERIS_TYPE":"0","RCS_SIZE":"LARGE","MEAN_ELEMENT_THEORY":"SGP4","ECCENTRICITY":"0.00015500","OBJECT_TYPE":"PAYLOAD","MEAN_MOTION_DOT":"-0.00002753","INCLINATION":"53.0531","ELEMENT_SET_NO":"999","APOAPSIS":"548.316","DECAY_DATE":null,"REF_FRAME":"TEME","TIME_SYSTEM":"UTC","TLE_LINE2":"2 47799  53.0531 198.9391 0001550  85.1398 274.9768 15.06390465 84576","SITE":"AFETR","OBJECT_ID":"2021-018N","CLASSIFICATION_TYPE":"U","LAUNCH_DATE":"2021-03-11","MEAN_MOTION_DDOT":"0.0000000000000","GP_ID":"212269297","ARG_OF_PERICENTER":"85.1398"},{"LAUNCH_DATE":"2021-03-11","GP_ID":"212269548","ARG_OF_PERICENTER":"53.6570","MEAN_MOTION_DDOT":"0.0000000000000","TLE_LINE2":"2 47800  53.0537 199.1528 0001722  53.6570 306.4578 15.06394211 84576","TIME_SYSTEM":"UTC","REF_FRAME":"TEME","OBJECT_ID":"2021-018P","SITE":"AFETR","CLASSIFICATION_TYPE":"U","APOAPSIS":"548.424","ELEMENT_SET_NO":"999","DECAY_DATE":null,"OBJECT_TYPE":"PAYLOAD","INCLINATION":"53.0537","MEAN_MOTION_DOT":"0.00000065","EPHEMERIS_TYPE":"0","RCS_SIZE":"LARGE","MEAN_ELEMENT_THEORY":"SGP4","ECCENTRICITY":"0.00017220","SEMIMAJOR_AXIS":"6925.366","EPOCH":"2022-09-10T20:05:05.492832","PERIAPSIS":"546.039","FILE":"3567798","RA_OF_ASC_NODE":"199.1528","OBJECT_NAME":"STARLINK-2381","COUNTRY_CODE":"US","MEAN_ANOMALY":"306.4578","MEAN_MOTION":"15.06394211","NORAD_CAT_ID":"47800","PERIOD":"95.593","BSTAR":"0.00002326200000","CENTER_NAME":"EARTH","REV_AT_EPOCH":"8457","TLE_LINE1":"1 47800U 21018P   22253.83686913  .00000065  00000-0  23262-4 0  9999"},{"DECAY_DATE":null,"ELEMENT_SET_NO":"999","APOAPSIS":"548.378","MEAN_MOTION_DOT":"-0.00000958","INCLINATION":"53.0562","OBJECT_TYPE":"PAYLOAD","LAUNCH_DATE":"2021-03-11","MEAN_MOTION_DDOT":"0.0000000000000","ARG_OF_PERICENTER":"72.4390","GP_ID":"212268296","OBJECT_ID":"2021-018Q","SITE":"AFETR","CLASSIFICATION_TYPE":"U","REF_FRAME":"TEME","TLE_LINE2":"2 47801  53.0562 204.0704 0001695  72.4390 287.6784 15.06403070 84512","TIME_SYSTEM":"UTC","COUNTRY_CODE":"US","MEAN_ANOMALY":"287.6784","OBJECT_NAME":"STARLINK-2382","RA_OF_ASC_NODE":"204.0704","MEAN_MOTION":"15.06403070","BSTAR":"-0.00004542300000","PERIOD":"95.592","REV_AT_EPOCH":"8451","TLE_LINE1":"1 47801U 21018Q   22253.87143228 -.00000958  00000-0 -45423-4 0  9997","CENTER_NAME":"EARTH","NORAD_CAT_ID":"47801","RCS_SIZE":"LARGE","MEAN_ELEMENT_THEORY":"SGP4","ECCENTRICITY":"0.00016950","EPHEMERIS_TYPE":"0","PERIAPSIS":"546.030","FILE":"3567798","EPOCH":"2022-09-10T20:54:51.748992","SEMIMAJOR_AXIS":"6925.339"},{"MEAN_MOTION":"15.06391325","RA_OF_ASC_NODE":"226.7559","OBJECT_NAME":"STARLINK-2383","MEAN_ANOMALY":"277.4947","COUNTRY_CODE":"US","NORAD_CAT_ID":"47802","CENTER_NAME":"EARTH","REV_AT_EPOCH":"8414","TLE_LINE1":"1 47802U 21018R   22253.25403160  .00001758  00000-0  13694-3 0  9995","PERIOD":"95.593","BSTAR":"0.00013694000000","EPHEMERIS_TYPE":"0","ECCENTRICITY":"0.00015440","RCS_SIZE":"LARGE","MEAN_ELEMENT_THEORY":"SGP4","SEMIMAJOR_AXIS":"6925.375","EPOCH":"2022-09-10T06:05:48.330240","FILE":"3567066","PERIAPSIS":"546.171","APOAPSIS":"548.309","ELEMENT_SET_NO":"999","DECAY_DATE":null,"OBJECT_TYPE":"PAYLOAD","INCLINATION":"53.0546","MEAN_MOTION_DOT":"0.00001758","ARG_OF_PERICENTER":"82.6217","GP_ID":"212227160","MEAN_MOTION_DDOT":"0.0000000000000","LAUNCH_DATE":"2021-03-11","TIME_SYSTEM":"UTC","TLE_LINE2":"2 47802  53.0546 226.7559 0001544  82.6217 277.4947 15.06391325 84144","REF_FRAME":"TEME","CLASSIFICATION_TYPE":"U","SITE":"AFETR","OBJECT_ID":"2021-018R"},{"REV_AT_EPOCH":"8457","TLE_LINE1":"1 47803U 21018S   22253.84792542 -.00002111  00000-0 -12289-3 0  9991","CENTER_NAME":"EARTH","PERIOD":"95.592","BSTAR":"-0.00012289000000","NORAD_CAT_ID":"47803","MEAN_MOTION":"15.06397011","MEAN_ANOMALY":"290.4895","COUNTRY_CODE":"US","OBJECT_NAME":"STARLINK-2384","RA_OF_ASC_NODE":"199.1065","FILE":"3567798","PERIAPSIS":"546.257","EPOCH":"2022-09-10T20:21:00.756288","SEMIMAJOR_AXIS":"6925.358","ECCENTRICITY":"0.00013940","MEAN_ELEMENT_THEORY":"SGP4","RCS_SIZE":"LARGE","EPHEMERIS_TYPE":"0","MEAN_MOTION_DOT":"-0.00002111","INCLINATION":"53.0526","OBJECT_TYPE":"PAYLOAD","DECAY_DATE":null,"ELEMENT_SET_NO":"999","APOAPSIS":"548.188","CLASSIFICATION_TYPE":"U","SITE":"AFETR","OBJECT_ID":"2021-018S","REF_FRAME":"TEME","TLE_LINE2":"2 47803  53.0526 199.1065 0001394  69.6244 290.4895 15.06397011 84578","TIME_SYSTEM":"UTC","MEAN_MOTION_DDOT":"0.0000000000000","ARG_OF_PERICENTER":"69.6244","GP_ID":"212268798","LAUNCH_DATE":"2021-03-11"},{"MEAN_MOTION":"15.06407241","MEAN_ANOMALY":"287.5565","COUNTRY_CODE":"US","RA_OF_ASC_NODE":"201.4217","OBJECT_NAME":"STARLINK-2385","REV_AT_EPOCH":"8449","TLE_LINE1":"1 47804U 21018T   22253.33189110  .00001375  00000-0  11120-3 0  9999","CENTER_NAME":"EARTH","PERIOD":"95.592","BSTAR":"0.00011120000000","NORAD_CAT_ID":"47804","ECCENTRICITY":"0.00015050","MEAN_ELEMENT_THEORY":"SGP4","RCS_SIZE":"LARGE","EPHEMERIS_TYPE":"0","FILE":"3567066","PERIAPSIS":"546.149","EPOCH":"2022-09-10T07:57:55.391040","SEMIMAJOR_AXIS":"6925.326","DECAY_DATE":null,"ELEMENT_SET_NO":"999","APOAPSIS":"548.234","MEAN_MOTION_DOT":"0.00001375","INCLINATION":"53.0539","OBJECT_TYPE":"PAYLOAD","MEAN_MOTION_DDOT":"0.0000000000000","GP_ID":"212226158","ARG_OF_PERICENTER":"72.5588","LAUNCH_DATE":"2021-03-11","CLASSIFICATION_TYPE":"U","OBJECT_ID":"2021-018T","SITE":"AFETR","REF_FRAME":"TEME","TIME_SYSTEM":"UTC","TLE_LINE2":"2 47804  53.0539 201.4217 0001505  72.5588 287.5565 15.06407241 84496"},{"ECCENTRICITY":"0.00014540","RCS_SIZE":"LARGE","MEAN_ELEMENT_THEORY":"SGP4","EPHEMERIS_TYPE":"0","FILE":"3567798","PERIAPSIS":"546.210","EPOCH":"2022-09-10T19:54:31.171680","SEMIMAJOR_AXIS":"6925.352","MEAN_MOTION":"15.06398999","MEAN_ANOMALY":"284.7521","COUNTRY_CODE":"US","OBJECT_NAME":"STARLINK-2386","RA_OF_ASC_NODE":"199.4271","REV_AT_EPOCH":"8457","TLE_LINE1":"1 47805U 21018U   22253.82952745  .00000626  00000-0  60892-4 0  9995","CENTER_NAME":"EARTH","BSTAR":"0.00006089200000","PERIOD":"95.592","NORAD_CAT_ID":"47805","MEAN_MOTION_DDOT":"0.0000000000000","GP_ID":"212267797","ARG_OF_PERICENTER":"75.3629","LAUNCH_DATE":"2021-03-11","CLASSIFICATION_TYPE":"U","SITE":"AFETR","OBJECT_ID":"2021-018U","REF_FRAME":"TEME","TIME_SYSTEM":"UTC","TLE_LINE2":"2 47805  53.0534 199.4271 0001454  75.3629 284.7521 15.06398999 84577","DECAY_DATE":null,"ELEMENT_SET_NO":"999","APOAPSIS":"548.224","MEAN_MOTION_DOT":"0.00000626","INCLINATION":"53.0534","OBJECT_TYPE":"PAYLOAD"},{"EPOCH":"2022-09-10T08:51:40.535424","SEMIMAJOR_AXIS":"6925.364","FILE":"3567066","PERIAPSIS":"546.100","EPHEMERIS_TYPE":"0","ECCENTRICITY":"0.00016290","MEAN_ELEMENT_THEORY":"SGP4","RCS_SIZE":"LARGE","NORAD_CAT_ID":"47806","TLE_LINE1":"1 47806U 21018V   22253.36921916  .00000754  00000-0  69498-4 0  9994","REV_AT_EPOCH":"8435","CENTER_NAME":"EARTH","PERIOD":"95.592","BSTAR":"0.00006949800000","MEAN_MOTION":"15.06395105","COUNTRY_CODE":"US","MEAN_ANOMALY":"294.9867","RA_OF_ASC_NODE":"216.2565","OBJECT_NAME":"STARLINK-2387","REF_FRAME":"TEME","TLE_LINE2":"2 47806  53.0535 216.2565 0001629  65.1291 294.9867 15.06395105 84357","TIME_SYSTEM":"UTC","CLASSIFICATION_TYPE":"U","OBJECT_ID":"2021-018V","SITE":"AFETR","MEAN_MOTION_DDOT":"0.0000000000000","GP_ID":"212226660","ARG_OF_PERICENTER":"65.1291","LAUNCH_DATE":"2021-03-11","OBJECT_TYPE":"PAYLOAD","MEAN_MOTION_DOT":"0.00000754","INCLINATION":"53.0535","ELEMENT_SET_NO":"999","APOAPSIS":"548.357","DECAY_DATE":null},{"RCS_SIZE":"LARGE","MEAN_ELEMENT_THEORY":"SGP4","ECCENTRICITY":"0.00014100","EPHEMERIS_TYPE":"0","PERIAPSIS":"546.221","FILE":"3567066","SEMIMAJOR_AXIS":"6925.332","EPOCH":"2022-09-10T05:25:19.318656","OBJECT_NAME":"STARLINK-2388","RA_OF_ASC_NODE":"191.8989","COUNTRY_CODE":"US","MEAN_ANOMALY":"293.2242","MEAN_MOTION":"15.06405265","PERIOD":"95.592","BSTAR":"0.00017738000000","CENTER_NAME":"EARTH","TLE_LINE1":"1 47807U 21018W   22253.22591804  .00002362  00000-0  17738-3 0  9995","REV_AT_EPOCH":"8461","NORAD_CAT_ID":"47807","LAUNCH_DATE":"2021-03-11","ARG_OF_PERICENTER":"66.8896","GP_ID":"212227402","MEAN_MOTION_DDOT":"0.0000000000000","OBJECT_ID":"2021-018W","SITE":"AFETR","CLASSIFICATION_TYPE":"U","TIME_SYSTEM":"UTC","TLE_LINE2":"2 47807  53.0540 191.8989 0001410  66.8896 293.2242 15.06405265 84616","REF_FRAME":"TEME","DECAY_DATE":null,"APOAPSIS":"548.174","ELEMENT_SET_NO":"999","INCLINATION":"53.0540","MEAN_MOTION_DOT":"0.00002362","OBJECT_TYPE":"PAYLOAD"},{"SEMIMAJOR_AXIS":"6925.350","EPOCH":"2022-09-10T06:07:08.024736","PERIAPSIS":"545.979","FILE":"3567289","EPHEMERIS_TYPE":"0","RCS_SIZE":"LARGE","MEAN_ELEMENT_THEORY":"SGP4","ECCENTRICITY":"0.00017850","NORAD_CAT_ID":"47808","BSTAR":"-0.00007198600000","PERIOD":"95.592","CENTER_NAME":"EARTH","REV_AT_EPOCH":"8393","TLE_LINE1":"1 47808U 21018X   22253.25495399 -.00001354  00000-0 -71986-4 0  9999","OBJECT_NAME":"STARLINK-2389","RA_OF_ASC_NODE":"216.7669","COUNTRY_CODE":"US","MEAN_ANOMALY":"300.9782","MEAN_MOTION":"15.06399505","TLE_LINE2":"2 47808  53.0552 216.7669 0001785  59.1382 300.9782 15.06399505 83930","TIME_SYSTEM":"UTC","REF_FRAME":"TEME","OBJECT_ID":"2021-018X","SITE":"AFETR","CLASSIFICATION_TYPE":"U","LAUNCH_DATE":"2021-03-11","GP_ID":"212235295","ARG_OF_PERICENTER":"59.1382","MEAN_MOTION_DDOT":"0.0000000000000","OBJECT_TYPE":"PAYLOAD","INCLINATION":"53.0552","MEAN_MOTION_DOT":"-0.00001354","APOAPSIS":"548.451","ELEMENT_SET_NO":"999","DECAY_DATE":null}];
